PROBA-1                 
1 26958U 01049B   24164.19740022  .00004256  00000+0  32486-3 0  9998
2 26958  97.9173 140.6613 0060290  79.3597 281.4409 15.01103604233148
CUTE-1 (CO-55)          
1 27844U 03031E   24163.95862926  .00000670  00000+0  31509-3 0  9998
2 27844  98.6764 171.0609 0010306 153.3201 206.8509 14.23272133 87076
CUBESAT XI-IV (CO-57)   
1 27848U 03031J   24163.46873750  .00000631  00000+0  30092-3 0  9998
2 27848  98.6794 170.8259 0009808 170.0650 190.0724 14.22712055 86725
GENESIS 1               
1 29252U 06029A   24164.16873349  .00019514  00000+0  50973-3 0  9991
2 29252  64.5139 183.0285 0024231 325.3891  34.5663 15.38561444989880
GENESIS 2               
1 31789U 07028A   24164.26769256  .00017827  00000+0  49217-3 0  9995
2 31789  64.4888 228.2990 0022190 226.5415 133.3872 15.36945669936727
APRIZESAT 4             
1 35684U 09041D   24164.09169170  .00001581  00000+0  20598-3 0  9991
2 35684  98.2368 210.7798 0045403 177.8765 182.2648 14.81402161802475
APRIZESAT 3             
1 35686U 09041F   24164.19684500  .00002630  00000+0  25964-3 0  9991
2 35686  98.1162 278.1614 0067000 330.3625  29.3802 14.91240332806671
PROBA-2                 
1 36037U 09059B   24164.11763021  .00000484  00000+0  12550-3 0  9991
2 36037  98.2311 347.6369 0014049  35.1722 325.0400 14.53946782774765
APRIZESAT 5             
1 37792U 11044E   24163.30586959  .00001746  00000+0  24487-3 0  9994
2 37792  98.2439  67.0318 0054735 207.1107 152.7242 14.77843352689967
APRIZESAT 6             
1 37793U 11044F   24163.56939241  .00001503  00000+0  23132-3 0  9996
2 37793  98.3028  46.8261 0043808 274.9369 149.5107 14.74449495688641
PROBA-V                 
1 39159U 13021A   24164.01329559  .00000179  00000+0  96769-4 0  9992
2 39159  98.3060 170.8180 0005283 118.7286 241.4425 14.23267832576526
APRIZESAT 7             
1 39416U 13066A   24163.86514994  .00002430  00000+0  27089-3 0  9998
2 39416  97.6706 123.2668 0040134 124.5600 235.9414 14.87371795571775
APRIZESAT 8             
1 39425U 13066K   24163.87864068  .00001933  00000+0  23296-3 0  9992
2 39425  97.7289 116.5479 0049001 181.3218 178.7875 14.84138932570725
BUGSAT-1 (TITA)         
1 40014U 14033E   24164.14902189  .00006807  00000+0  49109-3 0  9997
2 40014  98.1235 205.4942 0036416 149.5058 210.8294 15.03940315544894
SAUDISAT 4              
1 40016U 14033G   24164.18180381  .00001185  00000+0  17177-3 0  9999
2 40016  97.6662 330.2337 0045610 306.0219  53.6769 14.77164592537486
APRIZESAT 9             
1 40018U 14033J   24163.95432504  .00001277  00000+0  20391-3 0  9996
2 40018  97.8030 309.8106 0069857  44.7099 315.9711 14.71942428535436
APRIZESAT 10            
1 40019U 14033K   24163.96236530  .00001494  00000+0  25080-3 0  9990
2 40019  97.8677 301.5725 0082951 101.3130 259.7411 14.68854368534416
TECHDEMOSAT-1 (TDS-1)   
1 40076U 14037H   24164.04361723  .00008991  00000+0  84291-3 0  9998
2 40076  98.3284  86.1838 0004142 217.9915 142.1012 14.94263831537751
TIANTUO 2               
1 40144U 14053B   24164.16270690  .00032074  00000+0  38112-3 0  9997
2 40144  97.1222 245.2473 0007016  73.4431 286.7597 15.61076251547229
TECHNOSAT               
1 42829U 17042E   24164.03427713  .00004569  00000+0  40515-3 0  9994
2 42829  97.3837 345.3926 0013752  92.4693 267.8104 14.96592886376403
FLYING LAPTOP           
1 42831U 17042G   24164.16227307  .00003041  00000+0  28146-3 0  9998
2 42831  97.3857 345.3989 0014139  94.0017 266.2821 14.95138309376386
HAWK-A                  
1 43765U 18099H   24164.11056880  .00006438  00000+0  48234-3 0  9992
2 43765  97.4977 221.5840 0009010 299.9302  60.1029 15.02996475301882
HAWK-B                  
1 43794U 18099AN  24164.11097890  .00006466  00000+0  48447-3 0  9997
2 43794  97.4975 221.5866 0008859 301.3284  58.7074 15.02997637301870
HAWK-C                  
1 43799U 18099AT  24164.04417489  .00006499  00000+0  48693-3 0  9993
2 43799  97.4975 221.4149 0008833 301.1505  58.8854 15.02995370301862
SALSAT                  
1 46495U 20068K   24163.38850447  .00008722  00000+0  49548-3 0  9990
2 46495  97.8158 122.5346 0012992 341.3293  18.7459 15.13093703203437
HAWK-2C                 
1 47502U 21006CT  24164.14237902  .00007533  00000+0  35605-3 0  9991
2 47502  97.3317 214.2321 0008025 299.1739  60.8693 15.19652997187259
HAWK-2A                 
1 47505U 21006CW  24163.54993844  .00008821  00000+0  41645-3 0  9993
2 47505  97.3375 213.8728 0007226 305.8328  54.2235 15.19646874187169
HAWK-2B                 
1 47508U 21006CZ  24164.14273839  .00006118  00000+0  28985-3 0  9997
2 47508  97.3227 214.0714 0007811 301.6824  58.3649 15.19649421187256
HAWK-3B                 
1 48931U 21059BE  24163.93777039  .00012962  00000+0  46709-3 0  9991
2 48931  97.6299 308.1114 0013023 100.9600 259.3105 15.28612877164230
HAWK-3C                 
1 48948U 21059BX  24163.93751436  .00012567  00000+0  45284-3 0  9990
2 48948  97.6561 311.6692 0013811 104.9602 255.3167 15.28612845164230
HAWK-3A                 
1 48957U 21059CG  24163.93735803  .00012665  00000+0  45634-3 0  9998
2 48957  97.6431 309.8972 0013887  98.9587 261.3225 15.28610483164231
HAWK-4B                 
1 52165U 22033J   24163.48715430  .00022541  00000+0  58198-3 0  9994
2 52165  97.3250 246.2657 0006052 330.2669  29.8232 15.39136087122432
HAWK-4A                 
1 52167U 22033L   24164.20213198  .00019464  00000+0  50269-3 0  9992
2 52167  97.3195 246.4751 0005454 327.0597  33.0308 15.39160186122548
HAWK-4C                 
1 52170U 22033P   24164.20197136  .00020686  00000+0  53380-3 0  9994
2 52170  97.3248 246.9585 0007078 311.7746  48.2895 15.39162743122541
HAWK-5C                 
1 52754U 22057Y   24164.06938839  .00010666  00000+0  44955-3 0  9990
2 52754  97.5784 286.2623 0008819 161.6045 198.5512 15.23478786113437
HAWK-5B                 
1 52756U 22057AA  24164.06921891  .00011027  00000+0  46455-3 0  9991
2 52756  97.5782 284.7097 0009464 157.5270 202.6383 15.23480493113437
HAWK-5A                 
1 52757U 22057AB  24164.06898808  .00011042  00000+0  46514-3 0  9996
2 52757  97.5784 285.4793 0009763 160.7916 199.3690 15.23479502113438
HAWK-6B                 
1 55324U 23011A   24164.05110072  .00005049  00000+0  30373-3 0  9995
2 55324  40.5171 284.8964 0003463 125.5910 234.5218 15.11352783 76126
HAWK-6C                 
1 55326U 23011C   24164.18290906  .00005878  00000+0  35191-3 0  9999
2 55326  40.4858 282.7231 0004134 122.3197 237.8009 15.11349328 76159
HAWK-6A                 
1 55327U 23011D   24163.38985177  .00006573  00000+0  39234-3 0  9997
2 55327  40.5018 288.0017 0004079 104.7652 255.3605 15.11345337 76038
HAWK-7A                 
1 56191U 23054P   24164.19646745  .00007323  00000+0  35527-3 0  9994
2 56191  97.3713  56.0450 0009628 145.3821 214.8042 15.18745438 64965
HAWK-7B                 
1 56193U 23054R   24164.19634387  .00008369  00000+0  40545-3 0  9992
2 56193  97.3452  54.8090 0009872 159.6907 200.4722 15.18743340 64963
HAWK-7C                 
1 56200U 23054Y   24163.60313767  .00008113  00000+0  39334-3 0  9993
2 56200  97.3622  54.9864 0009080 157.0227 203.1415 15.18735769 64874
